GLOBALSTAR M075         
1 37192U 10054E   25063.66165012 -.00000069  00000+0  19333-3 0  9992
2 37192  51.9941 139.7926 0000619 117.9154  39.0463 12.62262125662642
GLOBALSTAR M073         
1 37193U 10054F   25063.94989104 -.00000107  00000+0 -19050-4 0  9991
2 37193  52.0067  52.6550 0000485  93.4280 291.7657 12.62263885664670
GLOBALSTAR M083         
1 37739U 11033A   25063.88267793 -.00000084  00000+0  11210-3 0  9993
2 37739  51.9887   1.7327 0000579  57.6973 323.5331 12.62259884633680
GLOBALSTAR M088         
1 37740U 11033B   25063.87414046 -.00000083  00000+0  11344-3 0  9996
2 37740  51.9716 267.3401 0000846  80.0539  22.6685 12.62263830629221
GLOBALSTAR M091         
1 37741U 11033C   25064.50719766 -.00000083  00000+0  11364-3 0  9997
2 37741  51.9977 228.7806 0000848  78.7847 321.2029 12.62265520630353
GLOBALSTAR M085         
1 37742U 11033D   25063.80875497 -.00000072  00000+0  17612-3 0  9994
2 37742  51.9859 182.0372 0000742  93.0836  71.5546 12.62265888630518
GLOBALSTAR M081         
1 37743U 11033E   25064.52922806 -.00000085  00000+0  10367-3 0  9996
2 37743  51.9949 182.5649 0000932  98.5867 342.1536 12.62261241631130
GLOBALSTAR M089         
1 37744U 11033F   25063.71120434 -.00000064  00000+0  21960-3 0  9992
2 37744  51.9925 139.3050 0000806 129.0984  12.2857 12.62266903631491
